[{"OBJECT_NAME":"ORBCOMM FM16","OBJECT_ID":"1998-046E","EPOCH":"2026-03-02T19:17:05.647776","MEAN_MOTION":14.39810475,"ECCENTRICITY":0.0002836,"INCLINATION":44.9947,"RA_OF_ASC_NODE":23.8763,"ARG_OF_PERICENTER":185.0853,"MEAN_ANOMALY":174.9967,"EPHEMERIS_TYPE":0,"CLASSIFICATION_TYPE":"U","NORAD_CAT_ID":25417,"ELEMENT_SET_NO":999,"REV_AT_EPOCH":44151,"BSTAR":0.00053569,"MEAN_MOTION_DOT":1.554e-5,"MEAN_MOTION_DDOT":0},{"OBJECT_NAME":"ORBCOMM FM15","OBJECT_ID":"1998-046F","EPOCH":"2026-03-01T22:38:33.271296","MEAN_MOTION":14.39427017,"ECCENTRICITY":0.0002671,"INCLINATION":44.998,"RA_OF_ASC_NODE":33.9056,"ARG_OF_PERICENTER":186.0202,"MEAN_ANOMALY":174.0615,"EPHEMERIS_TYPE":0,"CLASSIFICATION_TYPE":"U","NORAD_CAT_ID":25418,"ELEMENT_SET_NO":999,"REV_AT_EPOCH":44137,"BSTAR":0.0001764,"MEAN_MOTION_DOT":4.11e-6,"MEAN_MOTION_DDOT":0},{"OBJECT_NAME":"ORBCOMM FM14","OBJECT_ID":"1998-046G","EPOCH":"2026-03-02T14:00:48.267072","MEAN_MOTION":14.39869078,"ECCENTRICITY":0.0001376,"INCLINATION":44.9965,"RA_OF_ASC_NODE":28.2842,"ARG_OF_PERICENTER":199.4737,"MEAN_ANOMALY":160.606,"EPHEMERIS_TYPE":0,"CLASSIFICATION_TYPE":"U","NORAD_CAT_ID":25419,"ELEMENT_SET_NO":999,"REV_AT_EPOCH":44144,"BSTAR":0.00053387,"MEAN_MOTION_DOT":1.55e-5,"MEAN_MOTION_DDOT":0},{"OBJECT_NAME":"ORBCOMM FM13","OBJECT_ID":"1998-046H","EPOCH":"2026-03-02T07:30:35.881920","MEAN_MOTION":14.38425261,"ECCENTRICITY":0.00029889,"INCLINATION":44.9981,"RA_OF_ASC_NODE":40.2367,"ARG_OF_PERICENTER":148.7804,"MEAN_ANOMALY":211.3222,"EPHEMERIS_TYPE":0,"CLASSIFICATION_TYPE":"U","NORAD_CAT_ID":25420,"ELEMENT_SET_NO":999,"REV_AT_EPOCH":44039,"BSTAR":0.00048905759,"MEAN_MOTION_DOT":1.364e-5,"MEAN_MOTION_DDOT":0},{"OBJECT_NAME":"ORBCOMM FM21","OBJECT_ID":"1998-053A","EPOCH":"2026-03-02T12:36:53.251776","MEAN_MOTION":14.37996263,"ECCENTRICITY":9.29e-5,"INCLINATION":45.007,"RA_OF_ASC_NODE":125.5009,"ARG_OF_PERICENTER":216.5097,"MEAN_ANOMALY":143.5688,"EPHEMERIS_TYPE":0,"CLASSIFICATION_TYPE":"U","NORAD_CAT_ID":25475,"ELEMENT_SET_NO":999,"REV_AT_EPOCH":43442,"BSTAR":0.00038009,"MEAN_MOTION_DOT":1.018e-5,"MEAN_MOTION_DDOT":0},{"OBJECT_NAME":"ORBCOMM FM22","OBJECT_ID":"1998-053B","EPOCH":"2026-03-02T11:58:04.786464","MEAN_MOTION":14.39218626,"ECCENTRICITY":0.00010524,"INCLINATION":45.0062,"RA_OF_ASC_NODE":118.2219,"ARG_OF_PERICENTER":113.1737,"MEAN_ANOMALY":246.9223,"EPHEMERIS_TYPE":0,"CLASSIFICATION_TYPE":"U","NORAD_CAT_ID":25476,"ELEMENT_SET_NO":999,"REV_AT_EPOCH":43447,"BSTAR":0.00044710778,"MEAN_MOTION_DOT":1.256e-5,"MEAN_MOTION_DDOT":0},{"OBJECT_NAME":"ORBCOMM FM23","OBJECT_ID":"1998-053C","EPOCH":"2026-03-02T15:01:08.543712","MEAN_MOTION":14.38256907,"ECCENTRICITY":5.63e-5,"INCLINATION":45.0072,"RA_OF_ASC_NODE":126.7121,"ARG_OF_PERICENTER":137.2567,"MEAN_ANOMALY":222.8325,"EPHEMERIS_TYPE":0,"CLASSIFICATION_TYPE":"U","NORAD_CAT_ID":25477,"ELEMENT_SET_NO":999,"REV_AT_EPOCH":43459,"BSTAR":0.00043097,"MEAN_MOTION_DOT":1.18e-5,"MEAN_MOTION_DDOT":0},{"OBJECT_NAME":"ORBCOMM FM24","OBJECT_ID":"1998-053D","EPOCH":"2026-03-02T12:36:01.282176","MEAN_MOTION":14.38901494,"ECCENTRICITY":7.32e-5,"INCLINATION":45.0068,"RA_OF_ASC_NODE":123.4651,"ARG_OF_PERICENTER":173.4185,"MEAN_ANOMALY":186.6673,"EPHEMERIS_TYPE":0,"CLASSIFICATION_TYPE":"U","NORAD_CAT_ID":25478,"ELEMENT_SET_NO":999,"REV_AT_EPOCH":43464,"BSTAR":0.00044482,"MEAN_MOTION_DOT":1.24e-5,"MEAN_MOTION_DDOT":0},{"OBJECT_NAME":"ORBCOMM FM25","OBJECT_ID":"1998-053E","EPOCH":"2026-03-02T10:22:40.741536","MEAN_MOTION":14.3886569,"ECCENTRICITY":0.00027781,"INCLINATION":45.0061,"RA_OF_ASC_NODE":122.2172,"ARG_OF_PERICENTER":126.0669,"MEAN_ANOMALY":234.0438,"EPHEMERIS_TYPE":0,"CLASSIFICATION_TYPE":"U","NORAD_CAT_ID":25479,"ELEMENT_SET_NO":999,"REV_AT_EPOCH":43492,"BSTAR":0.00046084595,"MEAN_MOTION_DOT":1.289e-5,"MEAN_MOTION_DDOT":0},{"OBJECT_NAME":"ORBCOMM FM26","OBJECT_ID":"1998-053F","EPOCH":"2026-03-02T09:57:21.644640","MEAN_MOTION":14.37802904,"ECCENTRICITY":0.00050311,"INCLINATION":45.0059,"RA_OF_ASC_NODE":120.7324,"ARG_OF_PERICENTER":136.4516,"MEAN_ANOMALY":223.6731,"EPHEMERIS_TYPE":0,"CLASSIFICATION_TYPE":"U","NORAD_CAT_ID":25480,"ELEMENT_SET_NO":999,"REV_AT_EPOCH":43480,"BSTAR":0.00039222624,"MEAN_MOTION_DOT":1.05e-5,"MEAN_MOTION_DDOT":0},{"OBJECT_NAME":"ORBCOMM FM27","OBJECT_ID":"1998-053G","EPOCH":"2026-03-02T11:36:00.761760","MEAN_MOTION":14.38909206,"ECCENTRICITY":0.00016589,"INCLINATION":45.0043,"RA_OF_ASC_NODE":122.0746,"ARG_OF_PERICENTER":235.9779,"MEAN_ANOMALY":124.0912,"EPHEMERIS_TYPE":0,"CLASSIFICATION_TYPE":"U","NORAD_CAT_ID":25481,"ELEMENT_SET_NO":999,"REV_AT_EPOCH":43486,"BSTAR":0.00047330171,"MEAN_MOTION_DOT":1.329e-5,"MEAN_MOTION_DDOT":0},{"OBJECT_NAME":"ORBCOMM FM28","OBJECT_ID":"1998-053H","EPOCH":"2026-03-02T08:32:11.917536","MEAN_MOTION":14.39005986,"ECCENTRICITY":0.00034902,"INCLINATION":45.0055,"RA_OF_ASC_NODE":59.8885,"ARG_OF_PERICENTER":186.1945,"MEAN_ANOMALY":173.8861,"EPHEMERIS_TYPE":0,"CLASSIFICATION_TYPE":"U","NORAD_CAT_ID":25482,"ELEMENT_SET_NO":999,"REV_AT_EPOCH":43553,"BSTAR":0.00041360916,"MEAN_MOTION_DOT":1.146e-5,"MEAN_MOTION_DDOT":0},{"OBJECT_NAME":"ORBCOMM FM30","OBJECT_ID":"1999-065A","EPOCH":"2026-03-02T15:40:50.488032","MEAN_MOTION":14.37964767,"ECCENTRICITY":0.0005692,"INCLINATION":45.0317,"RA_OF_ASC_NODE":305.6968,"ARG_OF_PERICENTER":230.1423,"MEAN_ANOMALY":129.8926,"EPHEMERIS_TYPE":0,"CLASSIFICATION_TYPE":"U","NORAD_CAT_ID":25980,"ELEMENT_SET_NO":999,"REV_AT_EPOCH":37164,"BSTAR":0.00037533,"MEAN_MOTION_DOT":1.003e-5,"MEAN_MOTION_DDOT":0},{"OBJECT_NAME":"ORBCOMM FM31","OBJECT_ID":"1999-065B","EPOCH":"2026-03-02T15:20:21.470496","MEAN_MOTION":14.37887562,"ECCENTRICITY":0.0003516,"INCLINATION":45.0228,"RA_OF_ASC_NODE":299.2065,"ARG_OF_PERICENTER":262.1515,"MEAN_ANOMALY":97.8934,"EPHEMERIS_TYPE":0,"CLASSIFICATION_TYPE":"U","NORAD_CAT_ID":25981,"ELEMENT_SET_NO":999,"REV_AT_EPOCH":37119,"BSTAR":0.00036859,"MEAN_MOTION_DOT":9.8e-6,"MEAN_MOTION_DDOT":0},{"OBJECT_NAME":"ORBCOMM FM32","OBJECT_ID":"1999-065C","EPOCH":"2026-03-02T15:31:55.556256","MEAN_MOTION":14.36949238,"ECCENTRICITY":0.000577,"INCLINATION":45.0162,"RA_OF_ASC_NODE":317.4686,"ARG_OF_PERICENTER":255.3828,"MEAN_ANOMALY":104.6381,"EPHEMERIS_TYPE":0,"CLASSIFICATION_TYPE":"U","NORAD_CAT_ID":25982,"ELEMENT_SET_NO":999,"REV_AT_EPOCH":37176,"BSTAR":0.00040757,"MEAN_MOTION_DOT":1.076e-5,"MEAN_MOTION_DDOT":0},{"OBJECT_NAME":"ORBCOMM FM33","OBJECT_ID":"1999-065D","EPOCH":"2026-03-02T16:01:38.829792","MEAN_MOTION":14.40767111,"ECCENTRICITY":0.0008257,"INCLINATION":45.0272,"RA_OF_ASC_NODE":209.3527,"ARG_OF_PERICENTER":276.1151,"MEAN_ANOMALY":83.8758,"EPHEMERIS_TYPE":0,"CLASSIFICATION_TYPE":"U","NORAD_CAT_ID":25983,"ELEMENT_SET_NO":999,"REV_AT_EPOCH":37333,"BSTAR":0.00041917,"MEAN_MOTION_DOT":1.211e-5,"MEAN_MOTION_DDOT":0}]
